GLOBALSTAR M035         
1 25851U 99037A   25178.87918516 -.00000082  00000+0 -67799-3 0  9999
2 25851  51.9967  31.1214 0013991   2.1342  10.4576 11.04538924 97441
GLOBALSTAR M032         
1 25852U 99037B   25178.78291942 -.00000061  00000+0  16867-3 0  9993
2 25852  51.9917 215.8038 0012351 184.7599 175.3085 11.19061940135974
GLOBALSTAR M051         
1 25853U 99037C   25178.90625498 -.00000084  00000+0 -29728-3 0  9991
2 25853  51.9819  15.0335 0000387 143.6134 216.4703 11.42204779133619
GLOBALSTAR M030         
1 25854U 99037D   25178.72779115 -.00000092  00000+0 -35476-3 0  9994
2 25854  51.9839 180.9001 0002976  61.5358 298.5759 11.55108702151262
GLOBALSTAR M048         
1 25872U 99041A   25178.68311000 -.00000055  00000+0  41162-3 0  9996
2 25872  51.9389 311.0127 0013557 200.3164 172.6370 11.33857500126179
GLOBALSTAR M026         
1 25873U 99041B   25178.65284372 -.00000067  00000+0 -91398-4 0  9996
2 25873  51.9981 149.4750 0002354 296.9358 234.4313 11.06840376149646
GLOBALSTAR M043         
1 25874U 99041C   25178.83836493 -.00000030  00000+0  11286-2 0  9999
2 25874  51.9418  58.7114 0013574 333.1217 107.0750 11.25695496124074
GLOBALSTAR M028         
1 25875U 99041D   25178.62324671 -.00000104  00000+0 -23805-4 0  9992
2 25875  51.9599 161.9461 0063326  93.9725 266.8378 12.50584306191487
